{
"type": "FeatureCollection",
"name": "kc_zones",
"crs": { "type": "name", "properties": { "name": "urn:ogc:def:crs:OGC:1.3:CRS84" } },
"features": [
{ "type": "Feature", "properties": { "zone": "Central" }, "geometry": { "type": "MultiPolygon", "coordinates": [ [ [ [ -122.4958, 47.33065 ], [ -122.49367, 47.331 ], [ -122.49228, 47.33162 ], [ -122.49142, 47.33268 ], [ -122.49132, 47.3351 ], [ -122.49196, 47.33712 ], [ -122.49195, 47.33865 ], [ -122.4914, 47.34206 ], [ -122.49109, 47.34768 ], [ -122.49, 47.35145 ], [ -122.48981, 47.35292 ], [ -122.48814, 47.35671 ], [ -122.48746, 47.35913 ], [ -122.48755, 47.3604 ], [ -122.48827, 47.3627 ], [ -122.48828, 47.36572 ], [ -122.48746, 47.36658 ], [ -122.48802, 47.36718 ], [ -122.48618, 47.3726 ], [ -122.48623, 47.37353 ], [ -122.48514, 47.37672 ], [ -122.48437, 47.38057 ], [ -122.48202, 47.38264 ], [ -122.48105, 47.38282 ], [ -122.4793, 47.38426 ], [ -122.4785, 47.38536 ], [ -122.47389, 47.38676 ], [ -122.47313, 47.3873 ], [ -122.47126, 47.38758 ], [ -122.46729, 47.38773 ], [ -122.46428, 47.38752 ], [ -122.46047, 47.38695 ], [ -122.45792, 47.38606 ], [ -122.45306, 47.38392 ], [ -122.45128, 47.38399 ], [ -122.4507, 47.38503 ], [ -122.44674, 47.38839 ], [ -122.44574, 47.38977 ], [ -122.4472, 47.39044 ], [ -122.44811, 47.39272 ], [ -122.4506, 47.39463 ], [ -122.45244, 47.39512 ], [ -122.45568, 47.39494 ], [ -122.45627, 47.39419 ], [ -122.45967, 47.3934 ], [ -122.45968, 47.3929 ], [ -122.46178, 47.39148 ], [ -122.4647, 47.39013 ], [ -122.46618, 47.39131 ], [ -122.46629, 47.39347 ], [ -122.46533, 47.39448 ], [ -122.46542, 47.39714 ], [ -122.46476, 47.39902 ], [ -122.46385, 47.40054 ], [ -122.46417, 47.40182 ], [ -122.46226, 47.40117 ], [ -122.46057, 47.40198 ], [ -122.45512, 47.40196 ], [ -122.45513, 47.40307 ], [ -122.45327, 47.40298 ], [ -122.45214, 47.40341 ], [ -122.45095, 47.40294 ], [ -122.44858, 47.40271 ], [ -122.44727, 47.40319 ], [ -122.4452, 47.40517 ], [ -122.4408, 47.40582 ], [ -122.43971, 47.40655 ], [ -122.43819, 47.40608 ], [ -122.43879, 47.39984 ], [ -122.43834, 47.396 ], [ -122.43794, 47.39442 ], [ -122.43707, 47.39302 ], [ -122.43596, 47.39208 ], [ -122.43427, 47.39178 ], [ -122.43329, 47.39414 ], [ -122.43262, 47.39295 ], [ -122.43262, 47.39184 ], [ -122.43089, 47.38922 ], [ -122.43179, 47.38782 ], [ -122.43481, 47.38605 ], [ -122.4378, 47.38543 ], [ -122.43993, 47.38398 ], [ -122.44139, 47.38336 ], [ -122.44423, 47.38113 ], [ -122.44542, 47.37944 ], [ -122.44705, 47.37809 ], [ -122.44884, 47.37564 ], [ -122.45142, 47.37376 ], [ -122.45233, 47.37189 ], [ -122.45441, 47.37044 ], [ -122.4554, 47.37037 ], [ -122.45973, 47.37261 ], [ -122.46179, 47.37402 ], [ -122.46274, 47.37425 ], [ -122.46422, 47.3735 ], [ -122.46586, 47.36823 ], [ -122.46699, 47.36754 ], [ -122.47111, 47.36383 ], [ -122.47284, 47.36199 ], [ -122.47377, 47.36012 ], [ -122.47363, 47.35802 ], [ -122.47503, 47.35518 ], [ -122.47639, 47.35403 ], [ -122.47584, 47.35108 ], [ -122.47451, 47.34868 ], [ -122.47251, 47.34673 ], [ -122.47099, 47.34576 ], [ -122.46603, 47.34414 ], [ -122.46174, 47.34325 ], [ -122.45732, 47.34292 ], [ -122.45507, 47.34316 ], [ -122.45381, 47.34397 ], [ -122.45369, 47.34696 ], [ -122.45155, 47.34902 ], [ -122.44962, 47.3525 ], [ -122.44841, 47.35557 ], [ -122.44686, 47.35635 ], [ -122.4454, 47.35788 ], [ -122.44498, 47.35979 ], [ -122.43949, 47.36429 ], [ -122.43844, 47.36566 ], [ -122.43613, 47.36661 ], [ -122.43374, 47.36705 ], [ -122.43161, 47.36863 ], [ -122.42967, 47.36967 ], [ -122.42771, 47.36998 ], [ -122.42579, 47.36965 ], [ -122.42246, 47.37029 ], [ -122.42082, 47.37129 ], [ -122.41954, 47.37276 ], [ -122.42018, 47.373 ], [ -122.41777, 47.37485 ], [ -122.41431, 47.37556 ], [ -122.41093, 47.37679 ], [ -122.40397, 47.3787 ], [ -122.40221, 47.37969 ], [ -122.40022, 47.38126 ], [ -122.39648, 47.38226 ], [ -122.39303, 47.38274 ], [ -122.39117, 47.3828 ], [ -122.38673, 47.38463 ], [ -122.38128, 47.38491 ], [ -122.37663, 47.38596 ], [ -122.3757, 47.38637 ], [ -122.37377, 47.3885 ], [ -122.37766, 47.39069 ], [ -122.37935, 47.39143 ], [ -122.38472, 47.39433 ], [ -122.38567, 47.39501 ], [ -122.39121, 47.39717 ], [ -122.39495, 47.39909 ], [ -122.40127, 47.39957 ], [ -122.40259, 47.39994 ], [ -122.4089, 47.39991 ], [ -122.41676, 47.40038 ], [ -122.42314, 47.40109 ], [ -122.42876, 47.40236 ], [ -122.43223, 47.40379 ], [ -122.43699, 47.40674 ], [ -122.43851, 47.40839 ], [ -122.43703, 47.41107 ], [ -122.4376, 47.41316 ], [ -122.4385, 47.41407 ], [ -122.44001, 47.41784 ], [ -122.43912, 47.41853 ], [ -122.43607, 47.41975 ], [ -122.43265, 47.42182 ], [ -122.43132, 47.42151 ], [ -122.42956, 47.42166 ], [ -122.42918, 47.42336 ], [ -122.42942, 47.42431 ], [ -122.43348, 47.42696 ], [ -122.43553, 47.42994 ], [ -122.43743, 47.43348 ], [ -122.43969, 47.43533 ], [ -122.44045, 47.43761 ], [ -122.43987, 47.44063 ], [ -122.44092, 47.44735 ], [ -122.43999, 47.44942 ], [ -122.44264, 47.45102 ], [ -122.44396, 47.4527 ], [ -122.44243, 47.45555 ], [ -122.43806, 47.46035 ], [ -122.43708, 47.46122 ], [ -122.43405, 47.46531 ], [ -122.43203, 47.466 ], [ -122.43502, 47.46827 ], [ -122.43664, 47.4682 ], [ -122.44307, 47.47122 ], [ -122.44452, 47.47257 ], [ -122.44526, 47.475 ], [ -122.44669, 47.47641 ], [ -122.4476, 47.478 ], [ -122.44995, 47.47963 ], [ -122.45678, 47.48364 ], [ -122.46038, 47.48687 ], [ -122.46072, 47.48779 ], [ -122.46029, 47.49026 ], [ -122.45919, 47.49158 ], [ -122.46001, 47.49508 ], [ -122.45959, 47.49655 ], [ -122.45856, 47.49774 ], [ -122.45576, 47.50001 ], [ -122.45144, 47.50237 ], [ -122.45242, 47.50431 ], [ -122.45634, 47.50559 ], [ -122.45652, 47.50589 ], [ -122.46018, 47.50699 ], [ -122.46345, 47.5085 ], [ -122.46716, 47.50958 ], [ -122.46756, 47.50995 ], [ -122.47147, 47.51094 ], [ -122.47407, 47.51118 ], [ -122.47678, 47.50977 ], [ -122.47589, 47.50816 ], [ -122.47586, 47.50538 ], [ -122.47722, 47.50344 ], [ -122.47722, 47.50138 ], [ -122.47786, 47.49808 ], [ -122.47907, 47.49336 ], [ -122.47924, 47.49087 ], [ -122.47997, 47.49019 ], [ -122.47986, 47.48921 ], [ -122.48054, 47.48778 ], [ -122.48049, 47.48427 ], [ -122.48076, 47.48317 ], [ -122.48225, 47.48127 ], [ -122.48234, 47.48049 ], [ -122.48838, 47.47957 ], [ -122.49228, 47.4784 ], [ -122.49768, 47.47565 ], [ -122.49679, 47.47449 ], [ -122.49762, 47.47178 ], [ -122.49754, 47.46974 ], [ -122.50022, 47.46709 ], [ -122.5023, 47.46708 ], [ -122.50305, 47.46631 ], [ -122.50285, 47.4638 ], [ -122.50519, 47.46284 ], [ -122.50606, 47.46212 ], [ -122.5088, 47.46117 ], [ -122.50775, 47.45954 ], [ -122.50941, 47.45808 ], [ -122.50943, 47.45578 ], [ -122.50978, 47.45479 ], [ -122.51175, 47.45442 ], [ -122.51203, 47.45174 ], [ -122.51265, 47.44996 ], [ -122.51389, 47.44844 ], [ -122.51301, 47.44644 ], [ -122.51336, 47.44265 ], [ -122.51396, 47.44121 ], [ -122.51397, 47.43952 ], [ -122.51263, 47.43553 ], [ -122.51251, 47.43441 ], [ -122.51132, 47.43256 ], [ -122.5112, 47.4317 ], [ -122.512, 47.4291 ], [ -122.51242, 47.42866 ], [ -122.51262, 47.4262 ], [ -122.51221, 47.42224 ], [ -122.51455, 47.41851 ], [ -122.51458, 47.41743 ], [ -122.51381, 47.41633 ], [ -122.51326, 47.41444 ], [ -122.51526, 47.41328 ], [ -122.5192, 47.41003 ], [ -122.52078, 47.40832 ], [ -122.52267, 47.40486 ], [ -122.51997, 47.40324 ], [ -122.52658, 47.39853 ], [ -122.52642, 47.39736 ], [ -122.52738, 47.397 ], [ -122.52701, 47.39325 ], [ -122.52523, 47.39017 ], [ -122.52282, 47.38756 ], [ -122.52257, 47.38654 ], [ -122.52063, 47.38457 ], [ -122.51763, 47.38261 ], [ -122.51687, 47.38091 ], [ -122.51552, 47.37956 ], [ -122.51512, 47.37834 ], [ -122.51612, 47.37458 ], [ -122.51723, 47.37458 ], [ -122.51762, 47.37262 ], [ -122.51721, 47.3709 ], [ -122.51575, 47.37092 ], [ -122.51558, 47.37006 ], [ -122.51633, 47.36909 ], [ -122.51908, 47.36809 ], [ -122.52046, 47.36728 ], [ -122.52326, 47.36613 ], [ -122.52395, 47.36309 ], [ -122.52505, 47.3613 ], [ -122.52516, 47.35987 ], [ -122.5259, 47.35723 ], [ -122.52794, 47.35357 ], [ -122.52813, 47.34677 ], [ -122.52837, 47.34492 ], [ -122.52657, 47.34266 ], [ -122.52609, 47.33993 ], [ -122.52186, 47.33608 ], [ -122.52052, 47.33415 ], [ -122.51756, 47.33342 ], [ -122.51266, 47.3331 ], [ -122.509, 47.33362 ], [ -122.50761, 47.33303 ], [ -122.50535, 47.33109 ], [ -122.4958, 47.33065 ] ] ], [ [ [ -122.21902, 47.50057 ], [ -122.22008, 47.50171 ], [ -122.22265, 47.50243 ], [ -122.22999, 47.50617 ], [ -122.23361, 47.50833 ], [ -122.23649, 47.50976 ], [ -122.21982, 47.5098 ], [ -122.2357, 47.51777 ], [ -122.2461, 47.52257 ], [ -122.25119, 47.52596 ], [ -122.25424, 47.53062 ], [ -122.25467, 47.53637 ], [ -122.25302, 47.53952 ], [ -122.24675, 47.54439 ], [ -122.24214, 47.54992 ], [ -122.24057, 47.55404 ], [ -122.2409, 47.56196 ], [ -122.24578, 47.56903 ], [ -122.25116, 47.57268 ], [ -122.25992, 47.57547 ], [ -122.26485, 47.57937 ], [ -122.26683, 47.58737 ], [ -122.26365, 47.61312 ], [ -122.26224, 47.62478 ], [ -122.25962, 47.64037 ], [ -122.25529, 47.64938 ], [ -122.25103, 47.65335 ], [ -122.24199, 47.65777 ], [ -122.23583, 47.66063 ], [ -122.23081, 47.66495 ], [ -122.22968, 47.66868 ], [ -122.23034, 47.68003 ], [ -122.23207, 47.68335 ], [ -122.23631, 47.68622 ], [ -122.25105, 47.69362 ], [ -122.26072, 47.70226 ], [ -122.26914, 47.71412 ], [ -122.27349, 47.72658 ], [ -122.2744, 47.73373 ], [ -122.29244, 47.73375 ], [ -122.33428, 47.73413 ], [ -122.38127, 47.7343 ], [ -122.42992, 47.73528 ], [ -122.43406, 47.72636 ], [ -122.43746, 47.71305 ], [ -122.44692, 47.70448 ], [ -122.45761, 47.68517 ], [ -122.45977, 47.67242 ], [ -122.45857, 47.6656 ], [ -122.45441, 47.65325 ], [ -122.45269, 47.64235 ], [ -122.45284, 47.63609 ], [ -122.45499, 47.62719 ], [ -122.44867, 47.61651 ], [ -122.44606, 47.608 ], [ -122.44788, 47.5923 ], [ -122.45316, 47.58221 ], [ -122.45478, 47.57619 ], [ -122.45306, 47.5691 ], [ -122.44572, 47.55883 ], [ -122.44386, 47.5518 ], [ -122.44503, 47.54253 ], [ -122.44445, 47.53641 ], [ -122.44156, 47.52909 ], [ -122.43648, 47.52234 ], [ -122.42333, 47.50828 ], [ -122.41695, 47.49985 ], [ -122.40766, 47.48215 ], [ -122.38181, 47.49191 ], [ -122.38013, 47.4932 ], [ -122.37565, 47.49643 ], [ -122.37141, 47.50278 ], [ -122.35379, 47.5028 ], [ -122.34711, 47.5011 ], [ -122.34713, 47.49927 ], [ -122.32479, 47.49947 ], [ -122.32387, 47.50279 ], [ -122.31264, 47.50306 ], [ -122.3126, 47.50709 ], [ -122.30079, 47.50649 ], [ -122.308, 47.51295 ], [ -122.30524, 47.51424 ], [ -122.30898, 47.52602 ], [ -122.31846, 47.53177 ], [ -122.30517, 47.53168 ], [ -122.30092, 47.52903 ], [ -122.3003, 47.52466 ], [ -122.29365, 47.52446 ], [ -122.29128, 47.5193 ], [ -122.29134, 47.51015 ], [ -122.27007, 47.50966 ], [ -122.2703, 47.49554 ], [ -122.26928, 47.49553 ], [ -122.26397, 47.49127 ], [ -122.26377, 47.48812 ], [ -122.25778, 47.48415 ], [ -122.25372, 47.4795 ], [ -122.24971, 47.47993 ], [ -122.24582, 47.47994 ], [ -122.24557, 47.48185 ], [ -122.24546, 47.48202 ], [ -122.24279, 47.48128 ], [ -122.24023, 47.48109 ], [ -122.2377, 47.48121 ], [ -122.23478, 47.4807 ], [ -122.23341, 47.48072 ], [ -122.2322, 47.48047 ], [ -122.23267, 47.48414 ], [ -122.23331, 47.48466 ], [ -122.23295, 47.48642 ], [ -122.23295, 47.48644 ], [ -122.23295, 47.48644 ], [ -122.2276, 47.48636 ], [ -122.22699, 47.48702 ], [ -122.22615, 47.48784 ], [ -122.22596, 47.48816 ], [ -122.22531, 47.48852 ], [ -122.22758, 47.4894 ], [ -122.2276, 47.49089 ], [ -122.22305, 47.49089 ], [ -122.22305, 47.49357 ], [ -122.22229, 47.49356 ], [ -122.21989, 47.49352 ], [ -122.21989, 47.49353 ], [ -122.2197, 47.49469 ], [ -122.21961, 47.49523 ], [ -122.22197, 47.49531 ], [ -122.22233, 47.49666 ], [ -122.22119, 47.49743 ], [ -122.22105, 47.49743 ], [ -122.21995, 47.49777 ], [ -122.21902, 47.50057 ] ] ] ] } },
{ "type": "Feature", "properties": { "zone": "North" }, "geometry": { "type": "MultiPolygon", "coordinates": [ [ [ [ -122.1132, 47.7651 ], [ -122.11295, 47.77595 ], [ -122.15336, 47.7762 ], [ -122.16676, 47.77625 ], [ -122.17211, 47.77763 ], [ -122.17248, 47.77993 ], [ -122.17526, 47.77997 ], [ -122.17575, 47.78726 ], [ -122.18636, 47.78744 ], [ -122.18611, 47.81404 ], [ -122.19025, 47.81422 ], [ -122.19379, 47.81186 ], [ -122.19836, 47.81197 ], [ -122.20256, 47.8095 ], [ -122.20769, 47.80941 ], [ -122.22963, 47.80934 ], [ -122.23244, 47.8022 ], [ -122.24927, 47.80244 ], [ -122.24922, 47.79881 ], [ -122.24382, 47.79873 ], [ -122.24378, 47.77697 ], [ -122.24917, 47.77704 ], [ -122.27084, 47.77709 ], [ -122.28136, 47.77727 ], [ -122.33532, 47.77777 ], [ -122.35557, 47.77777 ], [ -122.37727, 47.77785 ], [ -122.39522, 47.77798 ], [ -122.39882, 47.77794 ], [ -122.39818, 47.77023 ], [ -122.39352, 47.76338 ], [ -122.38478, 47.75676 ], [ -122.38713, 47.74873 ], [ -122.38195, 47.73916 ], [ -122.38127, 47.7343 ], [ -122.33428, 47.73413 ], [ -122.29244, 47.73375 ], [ -122.2744, 47.73373 ], [ -122.27349, 47.72658 ], [ -122.26914, 47.71412 ], [ -122.26072, 47.70226 ], [ -122.25105, 47.69362 ], [ -122.23631, 47.68622 ], [ -122.23207, 47.68335 ], [ -122.23034, 47.68003 ], [ -122.22968, 47.66868 ], [ -122.23081, 47.66495 ], [ -122.23583, 47.66063 ], [ -122.24199, 47.65777 ], [ -122.23984, 47.6577 ], [ -122.21209, 47.65746 ], [ -122.20978, 47.64991 ], [ -122.21375, 47.64272 ], [ -122.20973, 47.64325 ], [ -122.19628, 47.64285 ], [ -122.19629, 47.64643 ], [ -122.18027, 47.64637 ], [ -122.18026, 47.65358 ], [ -122.18564, 47.65363 ], [ -122.18558, 47.66107 ], [ -122.18015, 47.66091 ], [ -122.18021, 47.65724 ], [ -122.16951, 47.65711 ], [ -122.16942, 47.66074 ], [ -122.16407, 47.66078 ], [ -122.15875, 47.66064 ], [ -122.15869, 47.66545 ], [ -122.16399, 47.66665 ], [ -122.16436, 47.68538 ], [ -122.16471, 47.68755 ], [ -122.1644, 47.7079 ], [ -122.16303, 47.71146 ], [ -122.15398, 47.71137 ], [ -122.1495, 47.72566 ], [ -122.14546, 47.7328 ], [ -122.15008, 47.73703 ], [ -122.15374, 47.74286 ], [ -122.16032, 47.74757 ], [ -122.16028, 47.7507 ], [ -122.1328, 47.7532 ], [ -122.13238, 47.75481 ], [ -122.12097, 47.75354 ], [ -122.12099, 47.75797 ], [ -122.11715, 47.76153 ], [ -122.11087, 47.76146 ], [ -122.1132, 47.7651 ] ] ], [ [ [ -121.36639, 47.71393 ], [ -121.36596, 47.70685 ], [ -121.34986, 47.70727 ], [ -121.35144, 47.71259 ], [ -121.35556, 47.71427 ], [ -121.36639, 47.71393 ] ] ], [ [ [ -121.99751, 47.72875 ], [ -121.98788, 47.72855 ], [ -121.98681, 47.72557 ], [ -121.97893, 47.72497 ], [ -121.96094, 47.72469 ], [ -121.95818, 47.72024 ], [ -121.95449, 47.72174 ], [ -121.95421, 47.72614 ], [ -121.95907, 47.73045 ], [ -121.9567, 47.73504 ], [ -121.94775, 47.7344 ], [ -121.94664, 47.7381 ], [ -121.94944, 47.74 ], [ -121.95952, 47.7409 ], [ -121.96472, 47.74328 ], [ -121.9648, 47.74703 ], [ -121.96946, 47.74753 ], [ -121.9715, 47.74092 ], [ -121.97493, 47.74095 ], [ -121.97505, 47.74756 ], [ -121.98063, 47.74755 ], [ -121.9847, 47.75123 ], [ -121.99264, 47.73269 ], [ -121.99751, 47.72875 ] ] ], [ [ [ -122.14546, 47.7328 ], [ -122.14542, 47.73276 ], [ -122.14532, 47.73202 ], [ -122.14314, 47.72979 ], [ -122.14298, 47.72853 ], [ -122.14232, 47.72852 ], [ -122.14199, 47.72866 ], [ -122.13922, 47.72969 ], [ -122.14019, 47.73367 ], [ -122.14546, 47.7328 ] ] ] ] } },
{ "type": "Feature", "properties": { "zone": "East" }, "geometry": { "type": "MultiPolygon", "coordinates": [ [ [ [ -122.03131, 47.50918 ], [ -122.02311, 47.5091 ], [ -122.02311, 47.50915 ], [ -122.02246, 47.50188 ], [ -121.99332, 47.50136 ], [ -121.97227, 47.50134 ], [ -121.97226, 47.49405 ], [ -121.97234, 47.47246 ], [ -121.95062, 47.47229 ], [ -121.94027, 47.47174 ], [ -121.92966, 47.4716 ], [ -121.9192, 47.47159 ], [ -121.91297, 47.47138 ], [ -121.90835, 47.47283 ], [ -121.90806, 47.45684 ], [ -121.90817, 47.44255 ], [ -121.90773, 47.42809 ], [ -121.88632, 47.42789 ], [ -121.86525, 47.42784 ], [ -121.84376, 47.42754 ], [ -121.82253, 47.42742 ], [ -121.80115, 47.42716 ], [ -121.78072, 47.42714 ], [ -121.78074, 47.42331 ], [ -121.77809, 47.42424 ], [ -121.77511, 47.42662 ], [ -121.76545, 47.43168 ], [ -121.76454, 47.43203 ], [ -121.76214, 47.43213 ], [ -121.75887, 47.43149 ], [ -121.75572, 47.43204 ], [ -121.75062, 47.43314 ], [ -121.74886, 47.43382 ], [ -121.74473, 47.43679 ], [ -121.74081, 47.43741 ], [ -121.73919, 47.43722 ], [ -121.73741, 47.4364 ], [ -121.73603, 47.43506 ], [ -121.73365, 47.43409 ], [ -121.73157, 47.43423 ], [ -121.72851, 47.43604 ], [ -121.72308, 47.43741 ], [ -121.71962, 47.43739 ], [ -121.71583, 47.43801 ], [ -121.71358, 47.43805 ], [ -121.7112, 47.43873 ], [ -121.70954, 47.44046 ], [ -121.7084, 47.44105 ], [ -121.70379, 47.44253 ], [ -121.70153, 47.44237 ], [ -121.69939, 47.44131 ], [ -121.69748, 47.44129 ], [ -121.69474, 47.44201 ], [ -121.68392, 47.44207 ], [ -121.68111, 47.4418 ], [ -121.67764, 47.44199 ], [ -121.67633, 47.44186 ], [ -121.67453, 47.44097 ], [ -121.67199, 47.44033 ], [ -121.6679, 47.43863 ], [ -121.66522, 47.4382 ], [ -121.66217, 47.43617 ], [ -121.6594, 47.43503 ], [ -121.65771, 47.43313 ], [ -121.65668, 47.43248 ], [ -121.6541, 47.43195 ], [ -121.64981, 47.43192 ], [ -121.64224, 47.42954 ], [ -121.64019, 47.42932 ], [ -121.63611, 47.42775 ], [ -121.6351, 47.42523 ], [ -121.63377, 47.42456 ], [ -121.62984, 47.42473 ], [ -121.62753, 47.42408 ], [ -121.61663, 47.42366 ], [ -121.61327, 47.42336 ], [ -121.61067, 47.4218 ], [ -121.60648, 47.41963 ], [ -121.60391, 47.41958 ], [ -121.60082, 47.4207 ], [ -121.59917, 47.42072 ], [ -121.59816, 47.42015 ], [ -121.59767, 47.41909 ], [ -121.59772, 47.41638 ], [ -121.59726, 47.41527 ], [ -121.59584, 47.41362 ], [ -121.59568, 47.41153 ], [ -121.59499, 47.41101 ], [ -121.59243, 47.41032 ], [ -121.59125, 47.40909 ], [ -121.59115, 47.40676 ], [ -121.59026, 47.40526 ], [ -121.58781, 47.40326 ], [ -121.58581, 47.40234 ], [ -121.58269, 47.40138 ], [ -121.57933, 47.40083 ], [ -121.57374, 47.39935 ], [ -121.57262, 47.3983 ], [ -121.57261, 47.39703 ], [ -121.57162, 47.39601 ], [ -121.56998, 47.39577 ], [ -121.56786, 47.39606 ], [ -121.55793, 47.39392 ], [ -121.55476, 47.39263 ], [ -121.55131, 47.39042 ], [ -121.54903, 47.38744 ], [ -121.54776, 47.38664 ], [ -121.5459, 47.38657 ], [ -121.54401, 47.38718 ], [ -121.54157, 47.38731 ], [ -121.53835, 47.38679 ], [ -121.5336, 47.38695 ], [ -121.52807, 47.3864 ], [ -121.52529, 47.38562 ], [ -121.52364, 47.38466 ], [ -121.52174, 47.38438 ], [ -121.5206, 47.38478 ], [ -121.51934, 47.38628 ], [ -121.51738, 47.3869 ], [ -121.51497, 47.38695 ], [ -121.51224, 47.38662 ], [ -121.50671, 47.38692 ], [ -121.50313, 47.38823 ], [ -121.50119, 47.38869 ], [ -121.49406, 47.38982 ], [ -121.48705, 47.39117 ], [ -121.48543, 47.39122 ], [ -121.48205, 47.39013 ], [ -121.47868, 47.38962 ], [ -121.47687, 47.38863 ], [ -121.47622, 47.38765 ], [ -121.47505, 47.38708 ], [ -121.47366, 47.38716 ], [ -121.46847, 47.3891 ], [ -121.46583, 47.38976 ], [ -121.46189, 47.3901 ], [ -121.4599, 47.38979 ], [ -121.45649, 47.39074 ], [ -121.45442, 47.39182 ], [ -121.45313, 47.39307 ], [ -121.45166, 47.39391 ], [ -121.4462, 47.39504 ], [ -121.44394, 47.39529 ], [ -121.42677, 47.3951 ], [ -121.4282, 47.39669 ], [ -121.43321, 47.39991 ], [ -121.4312, 47.40247 ], [ -121.4302, 47.40314 ], [ -121.42803, 47.40238 ], [ -121.42676, 47.40273 ], [ -121.42416, 47.40529 ], [ -121.42325, 47.40562 ], [ -121.42245, 47.40683 ], [ -121.42235, 47.40943 ], [ -121.42274, 47.41376 ], [ -121.42464, 47.41558 ], [ -121.42878, 47.41557 ], [ -121.42917, 47.41729 ], [ -121.428, 47.42024 ], [ -121.42754, 47.42078 ], [ -121.42503, 47.42188 ], [ -121.42325, 47.42198 ], [ -121.40766, 47.42379 ], [ -121.40192, 47.42827 ], [ -121.40184, 47.42988 ], [ -121.40547, 47.4299 ], [ -121.40423, 47.43068 ], [ -121.40125, 47.43197 ], [ -121.39902, 47.43223 ], [ -121.39681, 47.4319 ], [ -121.39145, 47.43431 ], [ -121.389, 47.43439 ], [ -121.38744, 47.43396 ], [ -121.38525, 47.4344 ], [ -121.38256, 47.43737 ], [ -121.38154, 47.43805 ], [ -121.38338, 47.4408 ], [ -121.3835, 47.4417 ], [ -121.38486, 47.44249 ], [ -121.38517, 47.44496 ], [ -121.38452, 47.44573 ], [ -121.38062, 47.44834 ], [ -121.37878, 47.45006 ], [ -121.37829, 47.45193 ], [ -121.37872, 47.45446 ], [ -121.37817, 47.45495 ], [ -121.37597, 47.45535 ], [ -121.37312, 47.45705 ], [ -121.37018, 47.46056 ], [ -121.36533, 47.46314 ], [ -121.36386, 47.4647 ], [ -121.36316, 47.46491 ], [ -121.3571, 47.46562 ], [ -121.35123, 47.46538 ], [ -121.34859, 47.46572 ], [ -121.3463, 47.46804 ], [ -121.34407, 47.46947 ], [ -121.34307, 47.47082 ], [ -121.34141, 47.47462 ], [ -121.34033, 47.47541 ], [ -121.33806, 47.47581 ], [ -121.33672, 47.47568 ], [ -121.33435, 47.47464 ], [ -121.33178, 47.47399 ], [ -121.33083, 47.47415 ], [ -121.32858, 47.47552 ], [ -121.32651, 47.47784 ], [ -121.32587, 47.47966 ], [ -121.32185, 47.47935 ], [ -121.31677, 47.47972 ], [ -121.31544, 47.47838 ], [ -121.31272, 47.47889 ], [ -121.31172, 47.48022 ], [ -121.31116, 47.48265 ], [ -121.30831, 47.48355 ], [ -121.30591, 47.48502 ], [ -121.303, 47.48611 ], [ -121.30256, 47.48803 ], [ -121.30144, 47.49034 ], [ -121.30154, 47.49416 ], [ -121.29886, 47.49832 ], [ -121.29774, 47.49948 ], [ -121.29496, 47.50116 ], [ -121.29221, 47.5019 ], [ -121.29199, 47.50359 ], [ -121.29037, 47.50488 ], [ -121.28988, 47.50755 ], [ -121.28878, 47.50849 ], [ -121.28832, 47.50967 ], [ -121.28882, 47.51102 ], [ -121.29129, 47.5116 ], [ -121.29162, 47.51348 ], [ -121.28638, 47.51312 ], [ -121.2835, 47.51475 ], [ -121.28542, 47.51693 ], [ -121.28441, 47.51758 ], [ -121.28276, 47.5196 ], [ -121.28066, 47.52029 ], [ -121.27927, 47.5227 ], [ -121.27743, 47.52295 ], [ -121.27286, 47.52269 ], [ -121.27107, 47.52333 ], [ -121.26237, 47.52377 ], [ -121.26085, 47.52478 ], [ -121.26081, 47.52693 ], [ -121.25968, 47.52706 ], [ -121.25693, 47.52952 ], [ -121.2572, 47.5314 ], [ -121.25501, 47.53392 ], [ -121.254, 47.53369 ], [ -121.2526, 47.53233 ], [ -121.25095, 47.53216 ], [ -121.24987, 47.53323 ], [ -121.24773, 47.53414 ], [ -121.24634, 47.53552 ], [ -121.2427, 47.53592 ], [ -121.24339, 47.53813 ], [ -121.24199, 47.53857 ], [ -121.24173, 47.53949 ], [ -121.2433, 47.54052 ], [ -121.24336, 47.54267 ], [ -121.24208, 47.5428 ], [ -121.24025, 47.54378 ], [ -121.23818, 47.54427 ], [ -121.23706, 47.54401 ], [ -121.23548, 47.54451 ], [ -121.23466, 47.5457 ], [ -121.23483, 47.54673 ], [ -121.23599, 47.54825 ], [ -121.23382, 47.54944 ], [ -121.23343, 47.55037 ], [ -121.23441, 47.55251 ], [ -121.23377, 47.55362 ], [ -121.23408, 47.55596 ], [ -121.23228, 47.5575 ], [ -121.2322, 47.55891 ], [ -121.23313, 47.56031 ], [ -121.23277, 47.56166 ], [ -121.2317, 47.56253 ], [ -121.22974, 47.56335 ], [ -121.22909, 47.56494 ], [ -121.22827, 47.56551 ], [ -121.22353, 47.56731 ], [ -121.22075, 47.56815 ], [ -121.21802, 47.57003 ], [ -121.21485, 47.56884 ], [ -121.21331, 47.56912 ], [ -121.20894, 47.56741 ], [ -121.20685, 47.56633 ], [ -121.20201, 47.56646 ], [ -121.19493, 47.5669 ], [ -121.19343, 47.56659 ], [ -121.18861, 47.56862 ], [ -121.18692, 47.56811 ], [ -121.1854, 47.56683 ], [ -121.184, 47.56653 ], [ -121.18294, 47.56549 ], [ -121.18088, 47.5648 ], [ -121.17911, 47.56523 ], [ -121.17676, 47.56682 ], [ -121.17628, 47.56776 ], [ -121.17692, 47.56992 ], [ -121.17471, 47.57267 ], [ -121.17277, 47.5734 ], [ -121.17157, 47.5744 ], [ -121.17067, 47.57612 ], [ -121.16981, 47.57874 ], [ -121.17002, 47.57941 ], [ -121.17206, 47.58064 ], [ -121.17317, 47.58348 ], [ -121.1713, 47.58457 ], [ -121.17083, 47.58578 ], [ -121.17199, 47.58851 ], [ -121.17208, 47.59012 ], [ -121.17012, 47.59025 ], [ -121.16719, 47.59099 ], [ -121.16654, 47.59169 ], [ -121.16417, 47.59246 ], [ -121.15913, 47.59305 ], [ -121.15587, 47.59411 ], [ -121.15439, 47.59541 ], [ -121.15135, 47.59562 ], [ -121.14915, 47.594 ], [ -121.148, 47.59362 ], [ -121.14598, 47.59362 ], [ -121.14244, 47.5921 ], [ -121.14096, 47.5926 ], [ -121.14101, 47.5938 ], [ -121.1399, 47.59414 ], [ -121.13788, 47.59571 ], [ -121.13414, 47.59503 ], [ -121.12982, 47.59341 ], [ -121.12644, 47.59265 ], [ -121.12407, 47.59235 ], [ -121.12025, 47.59141 ], [ -121.11923, 47.5921 ], [ -121.11887, 47.59551 ], [ -121.11824, 47.59645 ], [ -121.11616, 47.59789 ], [ -121.11522, 47.59726 ], [ -121.11363, 47.59714 ], [ -121.11172, 47.59888 ], [ -121.11103, 47.59991 ], [ -121.11159, 47.60201 ], [ -121.11213, 47.60275 ], [ -121.11598, 47.60434 ], [ -121.11702, 47.60648 ], [ -121.11797, 47.60718 ], [ -121.11895, 47.60887 ], [ -121.11935, 47.61028 ], [ -121.12036, 47.61158 ], [ -121.12044, 47.61334 ], [ -121.11938, 47.61333 ], [ -121.11912, 47.61589 ], [ -121.11766, 47.61664 ], [ -121.11347, 47.61802 ], [ -121.11268, 47.61978 ], [ -121.11285, 47.62085 ], [ -121.11379, 47.62253 ], [ -121.11564, 47.62434 ], [ -121.11709, 47.62473 ], [ -121.11772, 47.62647 ], [ -121.119, 47.62734 ], [ -121.12326, 47.62737 ], [ -121.12481, 47.6282 ], [ -121.12696, 47.6325 ], [ -121.12645, 47.63353 ], [ -121.12562, 47.63695 ], [ -121.12575, 47.63812 ], [ -121.12851, 47.64096 ], [ -121.13069, 47.64455 ], [ -121.13285, 47.6457 ], [ -121.13207, 47.64792 ], [ -121.1321, 47.64972 ], [ -121.13101, 47.65109 ], [ -121.13039, 47.65386 ], [ -121.13086, 47.65582 ], [ -121.12754, 47.65625 ], [ -121.12537, 47.65707 ], [ -121.12405, 47.6591 ], [ -121.12411, 47.66168 ], [ -121.12289, 47.66246 ], [ -121.12274, 47.66422 ], [ -121.12335, 47.66541 ], [ -121.12466, 47.66651 ], [ -121.1258, 47.66966 ], [ -121.1265, 47.67097 ], [ -121.12859, 47.67298 ], [ -121.12818, 47.67598 ], [ -121.12594, 47.67762 ], [ -121.12573, 47.67885 ], [ -121.12302, 47.68093 ], [ -121.12253, 47.6839 ], [ -121.12026, 47.68542 ], [ -121.11789, 47.68574 ], [ -121.11342, 47.68724 ], [ -121.11173, 47.68728 ], [ -121.10959, 47.68862 ], [ -121.10814, 47.6891 ], [ -121.10411, 47.6893 ], [ -121.09824, 47.69292 ], [ -121.09638, 47.69426 ], [ -121.09265, 47.69592 ], [ -121.09203, 47.69693 ], [ -121.08979, 47.69919 ], [ -121.09032, 47.702 ], [ -121.08937, 47.70307 ], [ -121.0874, 47.70334 ], [ -121.08484, 47.7026 ], [ -121.0781, 47.70217 ], [ -121.07512, 47.70402 ], [ -121.07299, 47.70401 ], [ -121.07156, 47.70492 ], [ -121.06783, 47.70624 ], [ -121.06614, 47.70653 ], [ -121.06505, 47.70744 ], [ -121.06436, 47.7097 ], [ -121.06456, 47.71099 ], [ -121.06428, 47.713 ], [ -121.06488, 47.71478 ], [ -121.06882, 47.71847 ], [ -121.07027, 47.71902 ], [ -121.07514, 47.7199 ], [ -121.08024, 47.72184 ], [ -121.08193, 47.72283 ], [ -121.08318, 47.72413 ], [ -121.08492, 47.72786 ], [ -121.08532, 47.7293 ], [ -121.08359, 47.72996 ], [ -121.08348, 47.7325 ], [ -121.08005, 47.73498 ], [ -121.07904, 47.73778 ], [ -121.0783, 47.73886 ], [ -121.0783, 47.73996 ], [ -121.08065, 47.74298 ], [ -121.08288, 47.7439 ], [ -121.08649, 47.74491 ], [ -121.08859, 47.74634 ], [ -121.08917, 47.74737 ], [ -121.09104, 47.75231 ], [ -121.09143, 47.75517 ], [ -121.09243, 47.75817 ], [ -121.09622, 47.75918 ], [ -121.09839, 47.75916 ], [ -121.09951, 47.75789 ], [ -121.10158, 47.75728 ], [ -121.10399, 47.75719 ], [ -121.10737, 47.75745 ], [ -121.10881, 47.75793 ], [ -121.10943, 47.7591 ], [ -121.10966, 47.76171 ], [ -121.10778, 47.7655 ], [ -121.10764, 47.767 ], [ -121.10943, 47.76788 ], [ -121.11277, 47.77024 ], [ -121.11459, 47.77273 ], [ -121.11871, 47.77624 ], [ -121.11874, 47.77764 ], [ -121.11819, 47.77919 ], [ -121.11849, 47.78038 ], [ -121.13071, 47.77994 ], [ -121.15205, 47.78008 ], [ -121.17353, 47.78004 ], [ -121.19563, 47.7801 ], [ -121.19567, 47.77914 ], [ -121.21711, 47.77927 ], [ -121.23861, 47.77944 ], [ -121.25996, 47.77957 ], [ -121.2807, 47.77956 ], [ -121.30191, 47.77966 ], [ -121.3246, 47.78004 ], [ -121.34643, 47.77992 ], [ -121.36803, 47.78017 ], [ -121.38864, 47.78022 ], [ -121.41033, 47.78038 ], [ -121.43223, 47.7805 ], [ -121.45553, 47.78058 ], [ -121.45554, 47.77843 ], [ -121.47571, 47.7781 ], [ -121.49736, 47.7777 ], [ -121.53899, 47.77777 ], [ -121.56123, 47.77772 ], [ -121.58524, 47.77782 ], [ -121.58522, 47.77702 ], [ -121.6063, 47.777 ], [ -121.6274, 47.77693 ], [ -121.62759, 47.77697 ], [ -121.67078, 47.77725 ], [ -121.69123, 47.77724 ], [ -121.71317, 47.77712 ], [ -121.73329, 47.7777 ], [ -121.75587, 47.77713 ], [ -121.77669, 47.7773 ], [ -121.79812, 47.77736 ], [ -121.81973, 47.77777 ], [ -121.84069, 47.77737 ], [ -121.85141, 47.77685 ], [ -121.86175, 47.7773 ], [ -121.8947, 47.77718 ], [ -121.92723, 47.77698 ], [ -121.94866, 47.77655 ], [ -121.95906, 47.77684 ], [ -121.97005, 47.77613 ], [ -121.99178, 47.77534 ], [ -122.01305, 47.77548 ], [ -122.04434, 47.77578 ], [ -122.05506, 47.77567 ], [ -122.06572, 47.77586 ], [ -122.0876, 47.77614 ], [ -122.09949, 47.77588 ], [ -122.11029, 47.77593 ], [ -122.11149, 47.77594 ], [ -122.11286, 47.77595 ], [ -122.11293, 47.77595 ], [ -122.11295, 47.77595 ], [ -122.1132, 47.7651 ], [ -122.11087, 47.76146 ], [ -122.11715, 47.76153 ], [ -122.12099, 47.75797 ], [ -122.12097, 47.75354 ], [ -122.13238, 47.75481 ], [ -122.1328, 47.7532 ], [ -122.16028, 47.7507 ], [ -122.16032, 47.74757 ], [ -122.15374, 47.74286 ], [ -122.15008, 47.73703 ], [ -122.14546, 47.7328 ], [ -122.1495, 47.72566 ], [ -122.15398, 47.71137 ], [ -122.16303, 47.71146 ], [ -122.1644, 47.7079 ], [ -122.16471, 47.68755 ], [ -122.16436, 47.68538 ], [ -122.16399, 47.66665 ], [ -122.15869, 47.66545 ], [ -122.15875, 47.66064 ], [ -122.16407, 47.66078 ], [ -122.16942, 47.66074 ], [ -122.16951, 47.65711 ], [ -122.18021, 47.65724 ], [ -122.18015, 47.66091 ], [ -122.18558, 47.66107 ], [ -122.18564, 47.65363 ], [ -122.18026, 47.65358 ], [ -122.18027, 47.64637 ], [ -122.19629, 47.64643 ], [ -122.19628, 47.64285 ], [ -122.20973, 47.64325 ], [ -122.21375, 47.64272 ], [ -122.20978, 47.64991 ], [ -122.21209, 47.65746 ], [ -122.23984, 47.6577 ], [ -122.24199, 47.65777 ], [ -122.25103, 47.65335 ], [ -122.25529, 47.64938 ], [ -122.25962, 47.64037 ], [ -122.26224, 47.62478 ], [ -122.26365, 47.61312 ], [ -122.26683, 47.58737 ], [ -122.26485, 47.57937 ], [ -122.25992, 47.57547 ], [ -122.25116, 47.57268 ], [ -122.24578, 47.56903 ], [ -122.2409, 47.56196 ], [ -122.24057, 47.55404 ], [ -122.24214, 47.54992 ], [ -122.24675, 47.54439 ], [ -122.25302, 47.53952 ], [ -122.25467, 47.53637 ], [ -122.25424, 47.53062 ], [ -122.25119, 47.52596 ], [ -122.2461, 47.52257 ], [ -122.2357, 47.51777 ], [ -122.21913, 47.52372 ], [ -122.20823, 47.53192 ], [ -122.20427, 47.53934 ], [ -122.202, 47.54609 ], [ -122.19481, 47.54571 ], [ -122.19426, 47.53936 ], [ -122.1925, 47.53848 ], [ -122.19092, 47.53126 ], [ -122.19102, 47.52502 ], [ -122.18568, 47.52147 ], [ -122.1857, 47.51781 ], [ -122.1804, 47.5166 ], [ -122.16589, 47.51839 ], [ -122.16032, 47.51646 ], [ -122.15912, 47.51873 ], [ -122.14319, 47.51645 ], [ -122.13785, 47.51635 ], [ -122.13776, 47.52362 ], [ -122.14311, 47.52365 ], [ -122.143, 47.52722 ], [ -122.12911, 47.52721 ], [ -122.12757, 47.52884 ], [ -122.13222, 47.53598 ], [ -122.1264, 47.53513 ], [ -122.12378, 47.53715 ], [ -122.111, 47.53954 ], [ -122.10806, 47.54656 ], [ -122.10052, 47.54493 ], [ -122.10047, 47.54843 ], [ -122.09484, 47.54845 ], [ -122.09476, 47.54845 ], [ -122.09483, 47.55199 ], [ -122.09387, 47.55197 ], [ -122.08541, 47.55182 ], [ -122.08423, 47.5518 ], [ -122.08415, 47.54831 ], [ -122.07352, 47.54481 ], [ -122.07357, 47.54255 ], [ -122.07359, 47.5421 ], [ -122.07373, 47.53757 ], [ -122.07637, 47.53756 ], [ -122.07659, 47.53031 ], [ -122.07924, 47.53031 ], [ -122.07924, 47.53031 ], [ -122.07924, 47.53031 ], [ -122.07948, 47.51964 ], [ -122.06647, 47.51959 ], [ -122.06409, 47.51957 ], [ -122.0642, 47.51629 ], [ -122.0642, 47.51625 ], [ -122.05834, 47.51611 ], [ -122.05834, 47.51593 ], [ -122.04771, 47.51558 ], [ -122.03883, 47.5156 ], [ -122.03695, 47.5156 ], [ -122.03694, 47.51283 ], [ -122.03694, 47.51282 ], [ -122.0315, 47.51277 ], [ -122.03142, 47.51044 ], [ -122.0314, 47.51002 ], [ -122.03137, 47.50918 ], [ -122.03137, 47.50918 ], [ -122.03131, 47.50918 ] ], [ [ -122.14019, 47.73367 ], [ -122.13922, 47.72969 ], [ -122.14199, 47.72866 ], [ -122.14232, 47.72852 ], [ -122.14298, 47.72853 ], [ -122.14314, 47.72979 ], [ -122.14532, 47.73202 ], [ -122.14542, 47.73276 ], [ -122.14546, 47.7328 ], [ -122.14019, 47.73367 ] ], [ [ -122.20361, 47.58342 ], [ -122.20951, 47.58312 ], [ -122.21473, 47.58702 ], [ -122.20589, 47.58688 ], [ -122.20448, 47.58383 ], [ -122.20361, 47.58342 ] ], [ [ -122.092, 47.65362 ], [ -122.09815, 47.64838 ], [ -122.10731, 47.65229 ], [ -122.10697, 47.65304 ], [ -122.1044, 47.65239 ], [ -122.10217, 47.65328 ], [ -122.1002, 47.6548 ], [ -122.09764, 47.65539 ], [ -122.09645, 47.65481 ], [ -122.095, 47.655 ], [ -122.09449, 47.65571 ], [ -122.09301, 47.65508 ], [ -122.092, 47.65362 ] ], [ [ -121.36639, 47.71393 ], [ -121.35556, 47.71427 ], [ -121.35144, 47.71259 ], [ -121.34986, 47.70727 ], [ -121.36596, 47.70685 ], [ -121.36639, 47.71393 ] ], [ [ -121.99751, 47.72875 ], [ -121.99264, 47.73269 ], [ -121.9847, 47.75123 ], [ -121.98063, 47.74755 ], [ -121.97505, 47.74756 ], [ -121.97493, 47.74095 ], [ -121.9715, 47.74092 ], [ -121.96946, 47.74753 ], [ -121.9648, 47.74703 ], [ -121.96472, 47.74328 ], [ -121.95952, 47.7409 ], [ -121.94944, 47.74 ], [ -121.94664, 47.7381 ], [ -121.94775, 47.7344 ], [ -121.9567, 47.73504 ], [ -121.95907, 47.73045 ], [ -121.95421, 47.72614 ], [ -121.95449, 47.72174 ], [ -121.95818, 47.72024 ], [ -121.96094, 47.72469 ], [ -121.97893, 47.72497 ], [ -121.98681, 47.72557 ], [ -121.98788, 47.72855 ], [ -121.99751, 47.72875 ] ] ] ] } },
{ "type": "Feature", "properties": { "zone": "South" }, "geometry": { "type": "MultiPolygon", "coordinates": [ [ [ [ -122.39507, 47.30476 ], [ -122.35568, 47.27747 ], [ -122.35085, 47.27387 ], [ -122.3475, 47.27171 ], [ -122.33731, 47.26458 ], [ -122.34012, 47.26461 ], [ -122.33894, 47.25177 ], [ -122.33621, 47.25176 ], [ -122.33667, 47.24496 ], [ -122.33606, 47.24389 ], [ -122.33399, 47.24904 ], [ -122.32816, 47.24918 ], [ -122.32548, 47.24697 ], [ -122.33095, 47.24436 ], [ -122.32882, 47.2427 ], [ -122.32647, 47.23786 ], [ -122.32363, 47.23908 ], [ -122.31399, 47.23925 ], [ -122.30719, 47.24283 ], [ -122.2939, 47.24274 ], [ -122.29383, 47.25489 ], [ -122.29115, 47.25723 ], [ -122.2715, 47.25728 ], [ -122.26214, 47.25734 ], [ -122.2589, 47.25069 ], [ -122.25567, 47.2429 ], [ -122.24638, 47.24292 ], [ -122.24519, 47.25012 ], [ -122.24501, 47.25743 ], [ -122.22949, 47.25756 ], [ -122.22891, 47.24638 ], [ -122.22393, 47.24636 ], [ -122.22396, 47.24272 ], [ -122.2187, 47.24173 ], [ -122.20834, 47.24171 ], [ -122.19541, 47.24316 ], [ -122.19526, 47.24638 ], [ -122.18989, 47.24693 ], [ -122.18973, 47.25026 ], [ -122.18749, 47.25048 ], [ -122.18689, 47.25405 ], [ -122.2084, 47.2538 ], [ -122.20835, 47.25747 ], [ -122.15296, 47.25752 ], [ -122.14444, 47.25739 ], [ -122.14361, 47.25626 ], [ -122.1383, 47.25447 ], [ -122.13677, 47.25361 ], [ -122.13523, 47.25198 ], [ -122.1358, 47.25014 ], [ -122.13542, 47.24891 ], [ -122.13399, 47.24837 ], [ -122.13249, 47.2484 ], [ -122.13164, 47.24761 ], [ -122.13254, 47.24566 ], [ -122.13145, 47.24311 ], [ -122.1301, 47.24311 ], [ -122.12979, 47.24222 ], [ -122.13005, 47.23886 ], [ -122.12687, 47.23586 ], [ -122.12292, 47.23243 ], [ -122.12067, 47.23016 ], [ -122.11772, 47.22834 ], [ -122.11524, 47.22757 ], [ -122.1131, 47.22653 ], [ -122.113, 47.22443 ], [ -122.11359, 47.22295 ], [ -122.11529, 47.22164 ], [ -122.11546, 47.22029 ], [ -122.11383, 47.21871 ], [ -122.11254, 47.21577 ], [ -122.1131, 47.21485 ], [ -122.11321, 47.21247 ], [ -122.11007, 47.21115 ], [ -122.10843, 47.21091 ], [ -122.10766, 47.21033 ], [ -122.10714, 47.20738 ], [ -122.10511, 47.20589 ], [ -122.10452, 47.20291 ], [ -122.10286, 47.20137 ], [ -122.09932, 47.19921 ], [ -122.09784, 47.1978 ], [ -122.0965, 47.19741 ], [ -122.09487, 47.1957 ], [ -122.09349, 47.19543 ], [ -122.09016, 47.19528 ], [ -122.0821, 47.19186 ], [ -122.07895, 47.19158 ], [ -122.07712, 47.19027 ], [ -122.0762, 47.18904 ], [ -122.07084, 47.18768 ], [ -122.06794, 47.18787 ], [ -122.06435, 47.18658 ], [ -122.06149, 47.18333 ], [ -122.06097, 47.18228 ], [ -122.0574, 47.18025 ], [ -122.05666, 47.17915 ], [ -122.05387, 47.17681 ], [ -122.05316, 47.17538 ], [ -122.05207, 47.17475 ], [ -122.04906, 47.17213 ], [ -122.04626, 47.17139 ], [ -122.0424, 47.17175 ], [ -122.03866, 47.17182 ], [ -122.03659, 47.17242 ], [ -122.03305, 47.17451 ], [ -122.03056, 47.17494 ], [ -122.02653, 47.17399 ], [ -122.02258, 47.17377 ], [ -122.02052, 47.17398 ], [ -122.01246, 47.1758 ], [ -122.01069, 47.1759 ], [ -122.00849, 47.17488 ], [ -122.00783, 47.17265 ], [ -122.00687, 47.17107 ], [ -122.00289, 47.16967 ], [ -122.00097, 47.1696 ], [ -121.99914, 47.1711 ], [ -121.99641, 47.17222 ], [ -121.995, 47.17208 ], [ -121.9944, 47.17129 ], [ -121.99368, 47.16773 ], [ -121.9927, 47.1671 ], [ -121.99211, 47.16529 ], [ -121.99069, 47.16441 ], [ -121.98896, 47.16411 ], [ -121.98876, 47.16319 ], [ -121.98742, 47.16253 ], [ -121.98578, 47.16278 ], [ -121.98402, 47.1622 ], [ -121.98345, 47.16137 ], [ -121.98089, 47.16165 ], [ -121.97897, 47.16009 ], [ -121.97664, 47.15995 ], [ -121.9742, 47.15832 ], [ -121.97081, 47.15663 ], [ -121.96832, 47.15644 ], [ -121.96568, 47.15588 ], [ -121.96414, 47.15715 ], [ -121.9631, 47.15747 ], [ -121.95954, 47.1574 ], [ -121.95726, 47.15624 ], [ -121.95323, 47.15529 ], [ -121.95207, 47.15466 ], [ -121.95136, 47.15251 ], [ -121.95038, 47.15105 ], [ -121.95063, 47.14861 ], [ -121.95022, 47.14783 ], [ -121.95123, 47.14613 ], [ -121.95056, 47.14452 ], [ -121.94826, 47.14279 ], [ -121.94551, 47.14136 ], [ -121.94464, 47.1403 ], [ -121.94224, 47.14005 ], [ -121.9388, 47.13894 ], [ -121.93311, 47.13873 ], [ -121.93151, 47.13957 ], [ -121.93156, 47.14128 ], [ -121.93107, 47.14271 ], [ -121.92754, 47.14468 ], [ -121.92729, 47.14575 ], [ -121.92918, 47.14716 ], [ -121.92721, 47.14812 ], [ -121.9234, 47.14893 ], [ -121.92192, 47.15004 ], [ -121.91759, 47.15071 ], [ -121.91408, 47.15013 ], [ -121.91218, 47.15023 ], [ -121.90738, 47.15123 ], [ -121.90697, 47.15224 ], [ -121.90338, 47.1544 ], [ -121.90243, 47.15567 ], [ -121.90135, 47.15612 ], [ -121.89867, 47.15529 ], [ -121.89054, 47.15462 ], [ -121.8868, 47.15396 ], [ -121.88451, 47.15304 ], [ -121.88225, 47.15272 ], [ -121.87725, 47.15275 ], [ -121.87617, 47.15315 ], [ -121.87451, 47.1528 ], [ -121.87054, 47.15275 ], [ -121.867, 47.1518 ], [ -121.86614, 47.15091 ], [ -121.86383, 47.14972 ], [ -121.85827, 47.14958 ], [ -121.85627, 47.149 ], [ -121.85544, 47.14745 ], [ -121.84989, 47.14712 ], [ -121.8475, 47.14521 ], [ -121.84411, 47.14385 ], [ -121.841, 47.1432 ], [ -121.83703, 47.14384 ], [ -121.83628, 47.14433 ], [ -121.83555, 47.1464 ], [ -121.83319, 47.14907 ], [ -121.83191, 47.15141 ], [ -121.83014, 47.1536 ], [ -121.82729, 47.15415 ], [ -121.82574, 47.15365 ], [ -121.82421, 47.15369 ], [ -121.8228, 47.15439 ], [ -121.82225, 47.15612 ], [ -121.82132, 47.15733 ], [ -121.81956, 47.15851 ], [ -121.81842, 47.15981 ], [ -121.81582, 47.15976 ], [ -121.814, 47.16038 ], [ -121.80993, 47.16506 ], [ -121.80863, 47.16519 ], [ -121.80768, 47.16459 ], [ -121.80658, 47.16493 ], [ -121.80443, 47.16818 ], [ -121.79884, 47.17055 ], [ -121.79665, 47.17266 ], [ -121.79478, 47.17262 ], [ -121.79278, 47.17212 ], [ -121.79134, 47.17213 ], [ -121.7894, 47.17272 ], [ -121.7884, 47.17235 ], [ -121.78682, 47.17093 ], [ -121.78526, 47.17108 ], [ -121.78233, 47.17205 ], [ -121.7783, 47.17304 ], [ -121.77717, 47.1725 ], [ -121.77641, 47.17145 ], [ -121.77649, 47.16996 ], [ -121.77544, 47.168 ], [ -121.77289, 47.16632 ], [ -121.76955, 47.16624 ], [ -121.76744, 47.16666 ], [ -121.76596, 47.16767 ], [ -121.76465, 47.1679 ], [ -121.76046, 47.16679 ], [ -121.75792, 47.16535 ], [ -121.7553, 47.16414 ], [ -121.75108, 47.16271 ], [ -121.74837, 47.16236 ], [ -121.74671, 47.16304 ], [ -121.74466, 47.16466 ], [ -121.74362, 47.16459 ], [ -121.7417, 47.16326 ], [ -121.73931, 47.1606 ], [ -121.73844, 47.16026 ], [ -121.73407, 47.15983 ], [ -121.73071, 47.15877 ], [ -121.72899, 47.15766 ], [ -121.72783, 47.15507 ], [ -121.72661, 47.15383 ], [ -121.71872, 47.15106 ], [ -121.71736, 47.15077 ], [ -121.71446, 47.15137 ], [ -121.71301, 47.15044 ], [ -121.71046, 47.14987 ], [ -121.70889, 47.15008 ], [ -121.70763, 47.15115 ], [ -121.70318, 47.15129 ], [ -121.69979, 47.15063 ], [ -121.69597, 47.15031 ], [ -121.69361, 47.15042 ], [ -121.6908, 47.14997 ], [ -121.68837, 47.15012 ], [ -121.68428, 47.15006 ], [ -121.68054, 47.153 ], [ -121.67925, 47.15356 ], [ -121.67483, 47.15429 ], [ -121.67195, 47.15541 ], [ -121.66803, 47.15611 ], [ -121.66441, 47.15942 ], [ -121.66292, 47.15975 ], [ -121.6599, 47.15857 ], [ -121.6575, 47.15888 ], [ -121.65491, 47.15876 ], [ -121.6537, 47.15752 ], [ -121.65195, 47.15636 ], [ -121.64952, 47.15518 ], [ -121.64726, 47.15493 ], [ -121.64579, 47.15568 ], [ -121.644, 47.15569 ], [ -121.64232, 47.15454 ], [ -121.64062, 47.15423 ], [ -121.63835, 47.1534 ], [ -121.63676, 47.15313 ], [ -121.63209, 47.15368 ], [ -121.62967, 47.15371 ], [ -121.62836, 47.15319 ], [ -121.62733, 47.15186 ], [ -121.6242, 47.15091 ], [ -121.62293, 47.14983 ], [ -121.62125, 47.14978 ], [ -121.62068, 47.14909 ], [ -121.62138, 47.14811 ], [ -121.62048, 47.14671 ], [ -121.61782, 47.14649 ], [ -121.61743, 47.14556 ], [ -121.61801, 47.1445 ], [ -121.61701, 47.14383 ], [ -121.61326, 47.14298 ], [ -121.61182, 47.14182 ], [ -121.612, 47.14088 ], [ -121.61063, 47.13936 ], [ -121.60858, 47.13765 ], [ -121.60859, 47.13636 ], [ -121.60625, 47.13592 ], [ -121.60472, 47.13522 ], [ -121.60426, 47.13347 ], [ -121.60161, 47.13109 ], [ -121.60127, 47.12964 ], [ -121.60053, 47.12873 ], [ -121.59911, 47.12803 ], [ -121.59889, 47.1266 ], [ -121.59739, 47.12417 ], [ -121.59721, 47.12318 ], [ -121.59613, 47.12203 ], [ -121.59261, 47.12073 ], [ -121.59004, 47.12059 ], [ -121.58718, 47.11957 ], [ -121.58577, 47.11954 ], [ -121.58468, 47.11887 ], [ -121.58243, 47.11893 ], [ -121.58066, 47.11971 ], [ -121.57861, 47.11929 ], [ -121.57517, 47.1205 ], [ -121.57356, 47.12004 ], [ -121.57189, 47.12003 ], [ -121.56932, 47.11944 ], [ -121.56719, 47.11966 ], [ -121.56534, 47.12022 ], [ -121.56049, 47.12027 ], [ -121.55899, 47.12072 ], [ -121.55643, 47.12225 ], [ -121.55401, 47.1229 ], [ -121.55054, 47.12318 ], [ -121.54887, 47.12251 ], [ -121.54726, 47.12319 ], [ -121.54535, 47.12265 ], [ -121.54405, 47.12309 ], [ -121.54224, 47.12235 ], [ -121.53869, 47.12315 ], [ -121.53667, 47.12285 ], [ -121.53523, 47.12304 ], [ -121.53158, 47.12493 ], [ -121.52733, 47.1236 ], [ -121.5258, 47.12387 ], [ -121.52385, 47.12363 ], [ -121.5201, 47.12238 ], [ -121.51827, 47.12234 ], [ -121.51674, 47.12124 ], [ -121.51569, 47.12152 ], [ -121.51446, 47.12313 ], [ -121.51294, 47.12362 ], [ -121.51117, 47.12286 ], [ -121.50913, 47.12241 ], [ -121.50661, 47.12072 ], [ -121.50707, 47.1191 ], [ -121.50517, 47.11812 ], [ -121.50283, 47.11895 ], [ -121.50097, 47.11855 ], [ -121.49925, 47.11861 ], [ -121.4968, 47.11768 ], [ -121.49474, 47.11642 ], [ -121.49348, 47.11649 ], [ -121.49218, 47.11724 ], [ -121.49087, 47.11596 ], [ -121.489, 47.11531 ], [ -121.48848, 47.11406 ], [ -121.48749, 47.11336 ], [ -121.48626, 47.11141 ], [ -121.48391, 47.11037 ], [ -121.48118, 47.10996 ], [ -121.48078, 47.10834 ], [ -121.47967, 47.10713 ], [ -121.47832, 47.10672 ], [ -121.47674, 47.10569 ], [ -121.47496, 47.10361 ], [ -121.47399, 47.10067 ], [ -121.47279, 47.09928 ], [ -121.4695, 47.09874 ], [ -121.4673, 47.0979 ], [ -121.46567, 47.09574 ], [ -121.46428, 47.09456 ], [ -121.46161, 47.09353 ], [ -121.46003, 47.09265 ], [ -121.45874, 47.09263 ], [ -121.45756, 47.09169 ], [ -121.45349, 47.08966 ], [ -121.44958, 47.08897 ], [ -121.44664, 47.08774 ], [ -121.44663, 47.08593 ], [ -121.4449, 47.08534 ], [ -121.44138, 47.08486 ], [ -121.43713, 47.08591 ], [ -121.43326, 47.08582 ], [ -121.42838, 47.08673 ], [ -121.42521, 47.08688 ], [ -121.42264, 47.08662 ], [ -121.42013, 47.08746 ], [ -121.41731, 47.08788 ], [ -121.41607, 47.08911 ], [ -121.41271, 47.09035 ], [ -121.40984, 47.08965 ], [ -121.40827, 47.089 ], [ -121.40545, 47.0888 ], [ -121.40288, 47.08836 ], [ -121.40027, 47.08906 ], [ -121.39219, 47.08888 ], [ -121.38649, 47.08723 ], [ -121.38231, 47.08832 ], [ -121.37989, 47.08735 ], [ -121.37682, 47.08874 ], [ -121.37701, 47.08991 ], [ -121.37975, 47.0904 ], [ -121.38125, 47.09173 ], [ -121.38335, 47.09511 ], [ -121.38681, 47.09427 ], [ -121.38689, 47.09368 ], [ -121.3886, 47.0933 ], [ -121.3909, 47.09206 ], [ -121.39267, 47.09202 ], [ -121.39362, 47.09255 ], [ -121.3945, 47.0941 ], [ -121.39552, 47.09489 ], [ -121.39877, 47.0961 ], [ -121.39986, 47.09709 ], [ -121.40246, 47.09825 ], [ -121.40243, 47.09911 ], [ -121.40135, 47.10039 ], [ -121.39954, 47.10157 ], [ -121.39965, 47.10277 ], [ -121.39886, 47.10391 ], [ -121.39933, 47.10508 ], [ -121.40158, 47.10571 ], [ -121.40309, 47.10683 ], [ -121.40345, 47.10814 ], [ -121.40471, 47.1095 ], [ -121.40617, 47.11278 ], [ -121.40673, 47.11593 ], [ -121.40809, 47.118 ], [ -121.40617, 47.12077 ], [ -121.40508, 47.12149 ], [ -121.40305, 47.12187 ], [ -121.40003, 47.12462 ], [ -121.39994, 47.12603 ], [ -121.3969, 47.12807 ], [ -121.39536, 47.12872 ], [ -121.39457, 47.13075 ], [ -121.39413, 47.13287 ], [ -121.39049, 47.13331 ], [ -121.38809, 47.13397 ], [ -121.38346, 47.13652 ], [ -121.38148, 47.13722 ], [ -121.37769, 47.13727 ], [ -121.37224, 47.13838 ], [ -121.36931, 47.13931 ], [ -121.36521, 47.14155 ], [ -121.36182, 47.14154 ], [ -121.35878, 47.14016 ], [ -121.35748, 47.13989 ], [ -121.35475, 47.14035 ], [ -121.3527, 47.13983 ], [ -121.34998, 47.1378 ], [ -121.34807, 47.13785 ], [ -121.34516, 47.13722 ], [ -121.34221, 47.13561 ], [ -121.34055, 47.13562 ], [ -121.33893, 47.13521 ], [ -121.33568, 47.13307 ], [ -121.33382, 47.13299 ], [ -121.33025, 47.13352 ], [ -121.32707, 47.13333 ], [ -121.32429, 47.134 ], [ -121.32143, 47.13522 ], [ -121.32045, 47.13534 ], [ -121.31785, 47.13433 ], [ -121.31504, 47.13432 ], [ -121.31314, 47.13529 ], [ -121.30887, 47.13648 ], [ -121.3033, 47.1391 ], [ -121.30215, 47.14158 ], [ -121.30179, 47.14443 ], [ -121.30113, 47.14577 ], [ -121.29972, 47.14733 ], [ -121.29805, 47.14828 ], [ -121.29793, 47.14881 ], [ -121.29954, 47.14964 ], [ -121.29986, 47.15212 ], [ -121.30167, 47.15486 ], [ -121.30191, 47.15643 ], [ -121.30381, 47.15827 ], [ -121.30563, 47.16126 ], [ -121.30624, 47.16178 ], [ -121.31152, 47.16315 ], [ -121.31328, 47.16488 ], [ -121.31596, 47.17034 ], [ -121.31807, 47.17288 ], [ -121.3179, 47.17389 ], [ -121.31612, 47.17626 ], [ -121.31407, 47.17714 ], [ -121.31304, 47.17813 ], [ -121.31027, 47.18197 ], [ -121.30983, 47.18342 ], [ -121.31028, 47.18496 ], [ -121.30896, 47.18519 ], [ -121.30626, 47.18811 ], [ -121.30632, 47.19223 ], [ -121.30855, 47.19568 ], [ -121.31116, 47.19877 ], [ -121.31125, 47.19973 ], [ -121.30881, 47.20266 ], [ -121.3095, 47.20454 ], [ -121.3116, 47.20566 ], [ -121.31289, 47.2078 ], [ -121.31456, 47.20903 ], [ -121.3159, 47.21072 ], [ -121.31734, 47.21186 ], [ -121.32022, 47.2125 ], [ -121.32386, 47.21459 ], [ -121.32466, 47.21557 ], [ -121.32925, 47.2173 ], [ -121.33598, 47.21873 ], [ -121.33788, 47.21818 ], [ -121.34047, 47.21812 ], [ -121.3464, 47.21861 ], [ -121.34994, 47.21998 ], [ -121.35365, 47.22063 ], [ -121.35533, 47.22189 ], [ -121.35706, 47.22262 ], [ -121.35913, 47.22263 ], [ -121.36079, 47.22317 ], [ -121.36153, 47.22388 ], [ -121.36501, 47.22482 ], [ -121.36546, 47.22716 ], [ -121.36355, 47.22958 ], [ -121.36054, 47.23172 ], [ -121.36043, 47.2327 ], [ -121.36106, 47.23368 ], [ -121.36081, 47.23495 ], [ -121.35916, 47.23649 ], [ -121.35856, 47.23777 ], [ -121.35886, 47.23885 ], [ -121.36069, 47.24063 ], [ -121.35705, 47.24181 ], [ -121.35154, 47.24259 ], [ -121.35081, 47.24374 ], [ -121.3466, 47.24622 ], [ -121.34441, 47.24677 ], [ -121.34168, 47.2467 ], [ -121.33914, 47.24734 ], [ -121.33753, 47.25158 ], [ -121.33695, 47.25259 ], [ -121.33565, 47.25344 ], [ -121.33366, 47.25387 ], [ -121.3317, 47.25681 ], [ -121.33138, 47.25801 ], [ -121.33221, 47.25895 ], [ -121.33498, 47.26042 ], [ -121.33546, 47.2629 ], [ -121.33761, 47.26556 ], [ -121.33772, 47.2669 ], [ -121.33889, 47.26855 ], [ -121.33888, 47.27128 ], [ -121.33967, 47.27172 ], [ -121.33893, 47.27418 ], [ -121.33898, 47.2767 ], [ -121.34165, 47.27835 ], [ -121.34176, 47.28154 ], [ -121.34247, 47.28233 ], [ -121.3445, 47.28309 ], [ -121.34699, 47.28299 ], [ -121.34979, 47.28326 ], [ -121.35106, 47.28368 ], [ -121.3519, 47.28481 ], [ -121.35523, 47.2839 ], [ -121.36035, 47.28542 ], [ -121.36071, 47.28778 ], [ -121.36058, 47.29065 ], [ -121.3622, 47.29204 ], [ -121.3673, 47.29089 ], [ -121.37096, 47.28849 ], [ -121.36997, 47.28705 ], [ -121.36993, 47.2862 ], [ -121.37139, 47.28548 ], [ -121.37448, 47.28561 ], [ -121.37999, 47.28617 ], [ -121.38246, 47.28597 ], [ -121.38356, 47.28553 ], [ -121.38515, 47.28557 ], [ -121.38691, 47.28628 ], [ -121.39189, 47.28659 ], [ -121.39329, 47.28717 ], [ -121.39445, 47.28871 ], [ -121.39693, 47.28882 ], [ -121.40211, 47.28839 ], [ -121.40489, 47.28867 ], [ -121.40784, 47.28969 ], [ -121.40904, 47.2892 ], [ -121.41245, 47.29015 ], [ -121.41371, 47.29143 ], [ -121.41417, 47.29246 ], [ -121.41571, 47.29336 ], [ -121.41757, 47.29347 ], [ -121.4197, 47.29096 ], [ -121.41966, 47.28863 ], [ -121.42002, 47.28656 ], [ -121.42297, 47.28786 ], [ -121.42684, 47.28828 ], [ -121.42804, 47.2886 ], [ -121.43084, 47.29174 ], [ -121.43261, 47.29341 ], [ -121.43229, 47.29477 ], [ -121.43113, 47.29598 ], [ -121.43183, 47.29722 ], [ -121.43277, 47.30116 ], [ -121.43294, 47.30507 ], [ -121.43524, 47.30575 ], [ -121.43588, 47.30671 ], [ -121.4375, 47.30711 ], [ -121.44158, 47.30719 ], [ -121.44412, 47.30813 ], [ -121.44506, 47.30918 ], [ -121.44483, 47.31111 ], [ -121.44214, 47.31416 ], [ -121.43914, 47.31668 ], [ -121.43671, 47.31823 ], [ -121.4352, 47.31995 ], [ -121.43426, 47.32198 ], [ -121.4328, 47.32352 ], [ -121.43243, 47.32463 ], [ -121.43221, 47.32754 ], [ -121.4315, 47.33172 ], [ -121.43083, 47.3332 ], [ -121.43159, 47.33504 ], [ -121.43578, 47.33759 ], [ -121.43789, 47.34013 ], [ -121.4407, 47.34163 ], [ -121.44148, 47.34262 ], [ -121.44318, 47.34345 ], [ -121.44506, 47.34363 ], [ -121.44822, 47.346 ], [ -121.44897, 47.34735 ], [ -121.45303, 47.34856 ], [ -121.45469, 47.34949 ], [ -121.45651, 47.34978 ], [ -121.45742, 47.3508 ], [ -121.46049, 47.35264 ], [ -121.46365, 47.35335 ], [ -121.46407, 47.35399 ], [ -121.46336, 47.3566 ], [ -121.46132, 47.35933 ], [ -121.46106, 47.36128 ], [ -121.46375, 47.36261 ], [ -121.46595, 47.3664 ], [ -121.46599, 47.36722 ], [ -121.46449, 47.36958 ], [ -121.46261, 47.36956 ], [ -121.46102, 47.37255 ], [ -121.45877, 47.37296 ], [ -121.45652, 47.37219 ], [ -121.45291, 47.37132 ], [ -121.45111, 47.37219 ], [ -121.44814, 47.37273 ], [ -121.44609, 47.37343 ], [ -121.44385, 47.37349 ], [ -121.44104, 47.37174 ], [ -121.43804, 47.37162 ], [ -121.43874, 47.37331 ], [ -121.44035, 47.37525 ], [ -121.44051, 47.37789 ], [ -121.44103, 47.37913 ], [ -121.4414, 47.3832 ], [ -121.44088, 47.38567 ], [ -121.43797, 47.38646 ], [ -121.43099, 47.38681 ], [ -121.43003, 47.38709 ], [ -121.42751, 47.38893 ], [ -121.42584, 47.38965 ], [ -121.42543, 47.39051 ], [ -121.42596, 47.39158 ], [ -121.42598, 47.3934 ], [ -121.42677, 47.3951 ], [ -121.44394, 47.39529 ], [ -121.4462, 47.39504 ], [ -121.45166, 47.39391 ], [ -121.45313, 47.39307 ], [ -121.45442, 47.39182 ], [ -121.45649, 47.39074 ], [ -121.4599, 47.38979 ], [ -121.46189, 47.3901 ], [ -121.46583, 47.38976 ], [ -121.46847, 47.3891 ], [ -121.47366, 47.38716 ], [ -121.47505, 47.38708 ], [ -121.47622, 47.38765 ], [ -121.47687, 47.38863 ], [ -121.47868, 47.38962 ], [ -121.48205, 47.39013 ], [ -121.48543, 47.39122 ], [ -121.48705, 47.39117 ], [ -121.49406, 47.38982 ], [ -121.50119, 47.38869 ], [ -121.50313, 47.38823 ], [ -121.50671, 47.38692 ], [ -121.51224, 47.38662 ], [ -121.51497, 47.38695 ], [ -121.51738, 47.3869 ], [ -121.51934, 47.38628 ], [ -121.5206, 47.38478 ], [ -121.52174, 47.38438 ], [ -121.52364, 47.38466 ], [ -121.52529, 47.38562 ], [ -121.52807, 47.3864 ], [ -121.5336, 47.38695 ], [ -121.53835, 47.38679 ], [ -121.54157, 47.38731 ], [ -121.54401, 47.38718 ], [ -121.5459, 47.38657 ], [ -121.54776, 47.38664 ], [ -121.54903, 47.38744 ], [ -121.55131, 47.39042 ], [ -121.55476, 47.39263 ], [ -121.55793, 47.39392 ], [ -121.56786, 47.39606 ], [ -121.56998, 47.39577 ], [ -121.57162, 47.39601 ], [ -121.57261, 47.39703 ], [ -121.57262, 47.3983 ], [ -121.57374, 47.39935 ], [ -121.57933, 47.40083 ], [ -121.58269, 47.40138 ], [ -121.58581, 47.40234 ], [ -121.58781, 47.40326 ], [ -121.59026, 47.40526 ], [ -121.59115, 47.40676 ], [ -121.59125, 47.40909 ], [ -121.59243, 47.41032 ], [ -121.59499, 47.41101 ], [ -121.59568, 47.41153 ], [ -121.59584, 47.41362 ], [ -121.59726, 47.41527 ], [ -121.59772, 47.41638 ], [ -121.59767, 47.41909 ], [ -121.59816, 47.42015 ], [ -121.59917, 47.42072 ], [ -121.60082, 47.4207 ], [ -121.60391, 47.41958 ], [ -121.60648, 47.41963 ], [ -121.61067, 47.4218 ], [ -121.61327, 47.42336 ], [ -121.61663, 47.42366 ], [ -121.62753, 47.42408 ], [ -121.62984, 47.42473 ], [ -121.63377, 47.42456 ], [ -121.6351, 47.42523 ], [ -121.63611, 47.42775 ], [ -121.64019, 47.42932 ], [ -121.64224, 47.42954 ], [ -121.64981, 47.43192 ], [ -121.6541, 47.43195 ], [ -121.65668, 47.43248 ], [ -121.65771, 47.43313 ], [ -121.6594, 47.43503 ], [ -121.66217, 47.43617 ], [ -121.66522, 47.4382 ], [ -121.6679, 47.43863 ], [ -121.67199, 47.44033 ], [ -121.67453, 47.44097 ], [ -121.67633, 47.44186 ], [ -121.67764, 47.44199 ], [ -121.68111, 47.4418 ], [ -121.68392, 47.44207 ], [ -121.69474, 47.44201 ], [ -121.69748, 47.44129 ], [ -121.69939, 47.44131 ], [ -121.70153, 47.44237 ], [ -121.70379, 47.44253 ], [ -121.7084, 47.44105 ], [ -121.70954, 47.44046 ], [ -121.7112, 47.43873 ], [ -121.71358, 47.43805 ], [ -121.71583, 47.43801 ], [ -121.71962, 47.43739 ], [ -121.72308, 47.43741 ], [ -121.72851, 47.43604 ], [ -121.73157, 47.43423 ], [ -121.73365, 47.43409 ], [ -121.73603, 47.43506 ], [ -121.73741, 47.4364 ], [ -121.73919, 47.43722 ], [ -121.74081, 47.43741 ], [ -121.74473, 47.43679 ], [ -121.74886, 47.43382 ], [ -121.75062, 47.43314 ], [ -121.75572, 47.43204 ], [ -121.75887, 47.43149 ], [ -121.76214, 47.43213 ], [ -121.76454, 47.43203 ], [ -121.76545, 47.43168 ], [ -121.77511, 47.42662 ], [ -121.77809, 47.42424 ], [ -121.78074, 47.42331 ], [ -121.78072, 47.42714 ], [ -121.80115, 47.42716 ], [ -121.82253, 47.42742 ], [ -121.84376, 47.42754 ], [ -121.86525, 47.42784 ], [ -121.88632, 47.42789 ], [ -121.90773, 47.42809 ], [ -121.90817, 47.44255 ], [ -121.90806, 47.45684 ], [ -121.90835, 47.47283 ], [ -121.91297, 47.47138 ], [ -121.9192, 47.47159 ], [ -121.92966, 47.4716 ], [ -121.94027, 47.47174 ], [ -121.95062, 47.47229 ], [ -121.97234, 47.47246 ], [ -121.97226, 47.49405 ], [ -121.97227, 47.50134 ], [ -121.99332, 47.50136 ], [ -122.02246, 47.50188 ], [ -122.02311, 47.50915 ], [ -122.02311, 47.5091 ], [ -122.03131, 47.50918 ], [ -122.03137, 47.50918 ], [ -122.03137, 47.50918 ], [ -122.0314, 47.51002 ], [ -122.03142, 47.51044 ], [ -122.0315, 47.51277 ], [ -122.03694, 47.51282 ], [ -122.03694, 47.51283 ], [ -122.03695, 47.5156 ], [ -122.03883, 47.5156 ], [ -122.04771, 47.51558 ], [ -122.05834, 47.51593 ], [ -122.05834, 47.51611 ], [ -122.0642, 47.51625 ], [ -122.0642, 47.51629 ], [ -122.06409, 47.51957 ], [ -122.06647, 47.51959 ], [ -122.07948, 47.51964 ], [ -122.07924, 47.53031 ], [ -122.07924, 47.53031 ], [ -122.07924, 47.53031 ], [ -122.07659, 47.53031 ], [ -122.07637, 47.53756 ], [ -122.07373, 47.53757 ], [ -122.07359, 47.5421 ], [ -122.07357, 47.54255 ], [ -122.07352, 47.54481 ], [ -122.08415, 47.54831 ], [ -122.08423, 47.5518 ], [ -122.08541, 47.55182 ], [ -122.09387, 47.55197 ], [ -122.09483, 47.55199 ], [ -122.09476, 47.54845 ], [ -122.09484, 47.54845 ], [ -122.10047, 47.54843 ], [ -122.10052, 47.54493 ], [ -122.10806, 47.54656 ], [ -122.111, 47.53954 ], [ -122.12378, 47.53715 ], [ -122.1264, 47.53513 ], [ -122.13222, 47.53598 ], [ -122.12757, 47.52884 ], [ -122.12911, 47.52721 ], [ -122.143, 47.52722 ], [ -122.14311, 47.52365 ], [ -122.13776, 47.52362 ], [ -122.13785, 47.51635 ], [ -122.14319, 47.51645 ], [ -122.15912, 47.51873 ], [ -122.16032, 47.51646 ], [ -122.16589, 47.51839 ], [ -122.1804, 47.5166 ], [ -122.1857, 47.51781 ], [ -122.18568, 47.52147 ], [ -122.19102, 47.52502 ], [ -122.19092, 47.53126 ], [ -122.1925, 47.53848 ], [ -122.19426, 47.53936 ], [ -122.19481, 47.54571 ], [ -122.19654, 47.5458 ], [ -122.19694, 47.54289 ], [ -122.19598, 47.53935 ], [ -122.20427, 47.53934 ], [ -122.20823, 47.53192 ], [ -122.21913, 47.52372 ], [ -122.2357, 47.51777 ], [ -122.21982, 47.5098 ], [ -122.21888, 47.49972 ], [ -122.21902, 47.50057 ], [ -122.21995, 47.49777 ], [ -122.22105, 47.49743 ], [ -122.22119, 47.49743 ], [ -122.22233, 47.49666 ], [ -122.22197, 47.49531 ], [ -122.21961, 47.49523 ], [ -122.21989, 47.49352 ], [ -122.22229, 47.49356 ], [ -122.22305, 47.49357 ], [ -122.22305, 47.49089 ], [ -122.2276, 47.49089 ], [ -122.22758, 47.4894 ], [ -122.22531, 47.48852 ], [ -122.22596, 47.48816 ], [ -122.22615, 47.48784 ], [ -122.22699, 47.48702 ], [ -122.2276, 47.48636 ], [ -122.23295, 47.48644 ], [ -122.23295, 47.48644 ], [ -122.23295, 47.48642 ], [ -122.23331, 47.48466 ], [ -122.23267, 47.48414 ], [ -122.2322, 47.48047 ], [ -122.23341, 47.48072 ], [ -122.23478, 47.4807 ], [ -122.2377, 47.48121 ], [ -122.24023, 47.48109 ], [ -122.24279, 47.48128 ], [ -122.24546, 47.48202 ], [ -122.24557, 47.48185 ], [ -122.24582, 47.47994 ], [ -122.24971, 47.47993 ], [ -122.25372, 47.4795 ], [ -122.25778, 47.48415 ], [ -122.26377, 47.48812 ], [ -122.26397, 47.49127 ], [ -122.26928, 47.49553 ], [ -122.2703, 47.49554 ], [ -122.27007, 47.50966 ], [ -122.29134, 47.51015 ], [ -122.29128, 47.5193 ], [ -122.29365, 47.52446 ], [ -122.3003, 47.52466 ], [ -122.30092, 47.52903 ], [ -122.30517, 47.53168 ], [ -122.31846, 47.53177 ], [ -122.30898, 47.52602 ], [ -122.30524, 47.51424 ], [ -122.308, 47.51295 ], [ -122.30079, 47.50649 ], [ -122.3126, 47.50709 ], [ -122.31264, 47.50306 ], [ -122.32387, 47.50279 ], [ -122.32479, 47.49947 ], [ -122.34713, 47.49927 ], [ -122.34711, 47.5011 ], [ -122.35379, 47.5028 ], [ -122.37141, 47.50278 ], [ -122.37565, 47.49643 ], [ -122.38013, 47.4932 ], [ -122.37565, 47.49124 ], [ -122.36892, 47.48585 ], [ -122.36631, 47.48163 ], [ -122.37304, 47.47195 ], [ -122.37416, 47.46841 ], [ -122.37279, 47.46024 ], [ -122.38415, 47.4546 ], [ -122.38738, 47.45174 ], [ -122.38651, 47.44787 ], [ -122.37708, 47.44526 ], [ -122.36821, 47.44374 ], [ -122.35814, 47.43772 ], [ -122.35341, 47.41759 ], [ -122.35129, 47.41321 ], [ -122.34083, 47.40693 ], [ -122.33576, 47.40304 ], [ -122.33214, 47.39785 ], [ -122.33028, 47.39174 ], [ -122.33152, 47.3882 ], [ -122.32955, 47.37815 ], [ -122.33104, 47.37207 ], [ -122.32891, 47.35258 ], [ -122.32971, 47.35022 ], [ -122.3375, 47.34603 ], [ -122.33914, 47.34525 ], [ -122.36786, 47.33952 ], [ -122.37569, 47.33657 ], [ -122.38083, 47.33054 ], [ -122.38763, 47.33173 ], [ -122.39744, 47.33089 ], [ -122.40391, 47.32668 ], [ -122.42321, 47.32402 ], [ -122.41726, 47.32012 ], [ -122.39507, 47.30476 ] ] ] ] } }
]
}
